CCSDS_OMM_VERS = 2.0
CREATION_DATE  = 
ORIGINATOR     = 

OBJECT_NAME    = STARLINK-37026
OBJECT_ID      = 2026-042G
CENTER_NAME    = EARTH
REF_FRAME      = TEME
TIME_SYSTEM    = UTC
MEAN_ELEMENT_THEORY = SGP/SGP4

EPOCH          = 2026-03-30T12:50:50.316576
MEAN_MOTION    = 15.75366946
ECCENTRICITY   = .0001386
INCLINATION    = 53.1564
RA_OF_ASC_NODE = 90.7703
ARG_OF_PERICENTER = 54.9103
MEAN_ANOMALY   = 305.2048

EPHEMERIS_TYPE = 0
CLASSIFICATION_TYPE = U
NORAD_CAT_ID   = 68075
ELEMENT_SET_NO = 999
REV_AT_EPOCH   = 537
BSTAR          = .25338249E-2
MEAN_MOTION_DOT = .409448E-2
MEAN_MOTION_DDOT = 0

CCSDS_OMM_VERS = 2.0
CREATION_DATE  = 
ORIGINATOR     = 

OBJECT_NAME    = STARLINK-37023
OBJECT_ID      = 2026-042H
CENTER_NAME    = EARTH
REF_FRAME      = TEME
TIME_SYSTEM    = UTC
MEAN_ELEMENT_THEORY = SGP/SGP4

EPOCH          = 2026-03-30T17:17:28.436928
MEAN_MOTION    = 15.75312187
ECCENTRICITY   = .00032687
INCLINATION    = 53.1569
RA_OF_ASC_NODE = 89.7894
ARG_OF_PERICENTER = 83.9508
MEAN_ANOMALY   = 276.1885

EPHEMERIS_TYPE = 0
CLASSIFICATION_TYPE = U
NORAD_CAT_ID   = 68076
ELEMENT_SET_NO = 999
REV_AT_EPOCH   = 540
BSTAR          = .17323263E-2
MEAN_MOTION_DOT = .274608E-2
MEAN_MOTION_DDOT = 0

CCSDS_OMM_VERS = 2.0
CREATION_DATE  = 
ORIGINATOR     = 

OBJECT_NAME    = STARLINK-37036
OBJECT_ID      = 2026-042J
CENTER_NAME    = EARTH
REF_FRAME      = TEME
TIME_SYSTEM    = UTC
MEAN_ELEMENT_THEORY = SGP/SGP4

EPOCH          = 2026-03-30T23:23:22.487712
MEAN_MOTION    = 15.75456354
ECCENTRICITY   = .00020782
INCLINATION    = 53.1568
RA_OF_ASC_NODE = 88.5294
ARG_OF_PERICENTER = 137.6087
MEAN_ANOMALY   = 222.5094

EPHEMERIS_TYPE = 0
CLASSIFICATION_TYPE = U
NORAD_CAT_ID   = 68077
ELEMENT_SET_NO = 999
REV_AT_EPOCH   = 544
BSTAR          = .31911329E-2
MEAN_MOTION_DOT = .525068E-2
MEAN_MOTION_DDOT = 0

CCSDS_OMM_VERS = 2.0
CREATION_DATE  = 
ORIGINATOR     = 

OBJECT_NAME    = STARLINK-36973
OBJECT_ID      = 2026-042K
CENTER_NAME    = EARTH
REF_FRAME      = TEME
TIME_SYSTEM    = UTC
MEAN_ELEMENT_THEORY = SGP/SGP4

EPOCH          = 2026-03-30T09:01:54.736608
MEAN_MOTION    = 15.75358603
ECCENTRICITY   = .00013936
INCLINATION    = 53.1583
RA_OF_ASC_NODE = 91.1869
ARG_OF_PERICENTER = 62.6670
MEAN_ANOMALY   = 297.4492

EPHEMERIS_TYPE = 0
CLASSIFICATION_TYPE = U
NORAD_CAT_ID   = 68078
ELEMENT_SET_NO = 999
REV_AT_EPOCH   = 535
BSTAR          = .26117961E-2
MEAN_MOTION_DOT = .422579E-2
MEAN_MOTION_DDOT = 0

CCSDS_OMM_VERS = 2.0
CREATION_DATE  = 
ORIGINATOR     = 

OBJECT_NAME    = STARLINK-37063
OBJECT_ID      = 2026-042L
CENTER_NAME    = EARTH
REF_FRAME      = TEME
TIME_SYSTEM    = UTC
MEAN_ELEMENT_THEORY = SGP/SGP4

EPOCH          = 2026-03-30T10:12:40.185504
MEAN_MOTION    = 15.80975286
ECCENTRICITY   = .0001504
INCLINATION    = 53.1568
RA_OF_ASC_NODE = 90.7785
ARG_OF_PERICENTER = 44.5106
MEAN_ANOMALY   = 315.6037

EPHEMERIS_TYPE = 0
CLASSIFICATION_TYPE = U
NORAD_CAT_ID   = 68079
ELEMENT_SET_NO = 999
REV_AT_EPOCH   = 536
BSTAR          = .15226591E-2
MEAN_MOTION_DOT = .312421E-2
MEAN_MOTION_DDOT = 0

CCSDS_OMM_VERS = 2.0
CREATION_DATE  = 
ORIGINATOR     = 

OBJECT_NAME    = STARLINK-37051
OBJECT_ID      = 2026-042M
CENTER_NAME    = EARTH
REF_FRAME      = TEME
TIME_SYSTEM    = UTC
MEAN_ELEMENT_THEORY = SGP/SGP4

EPOCH          = 2026-03-30T21:19:19.684128
MEAN_MOTION    = 15.75380425
ECCENTRICITY   = .00010367
INCLINATION    = 53.1583
RA_OF_ASC_NODE = 88.6940
ARG_OF_PERICENTER = 95.9302
MEAN_ANOMALY   = 264.1837

EPHEMERIS_TYPE = 0
CLASSIFICATION_TYPE = U
NORAD_CAT_ID   = 68080
ELEMENT_SET_NO = 999
REV_AT_EPOCH   = 543
BSTAR          = .21322283E-2
MEAN_MOTION_DOT = .341874E-2
MEAN_MOTION_DDOT = 0

CCSDS_OMM_VERS = 2.0
CREATION_DATE  = 
ORIGINATOR     = 

OBJECT_NAME    = STARLINK-37066
OBJECT_ID      = 2026-042N
CENTER_NAME    = EARTH
REF_FRAME      = TEME
TIME_SYSTEM    = UTC
MEAN_ELEMENT_THEORY = SGP/SGP4

EPOCH          = 2026-03-30T17:04:22.924416
MEAN_MOTION    = 15.75338855
ECCENTRICITY   = .00008916
INCLINATION    = 53.1594
RA_OF_ASC_NODE = 89.7299
ARG_OF_PERICENTER = 103.8766
MEAN_ANOMALY   = 256.2354

EPHEMERIS_TYPE = 0
CLASSIFICATION_TYPE = U
NORAD_CAT_ID   = 68081
ELEMENT_SET_NO = 999
REV_AT_EPOCH   = 540
BSTAR          = .16741085E-2
MEAN_MOTION_DOT = .265351E-2
MEAN_MOTION_DDOT = 0

CCSDS_OMM_VERS = 2.0
CREATION_DATE  = 
ORIGINATOR     = 

OBJECT_NAME    = STARLINK-37054
OBJECT_ID      = 2026-042P
CENTER_NAME    = EARTH
REF_FRAME      = TEME
TIME_SYSTEM    = UTC
MEAN_ELEMENT_THEORY = SGP/SGP4

EPOCH          = 2026-03-30T13:10:24.985920
MEAN_MOTION    = 15.80984265
ECCENTRICITY   = .00009392
INCLINATION    = 53.1569
RA_OF_ASC_NODE = 90.1239
ARG_OF_PERICENTER = 130.6273
MEAN_ANOMALY   = 229.4832

EPHEMERIS_TYPE = 0
CLASSIFICATION_TYPE = U
NORAD_CAT_ID   = 68082
ELEMENT_SET_NO = 999
REV_AT_EPOCH   = 538
BSTAR          = .1380694E-2
MEAN_MOTION_DOT = .282351E-2
MEAN_MOTION_DDOT = 0

CCSDS_OMM_VERS = 2.0
CREATION_DATE  = 
ORIGINATOR     = 

OBJECT_NAME    = STARLINK-37065
OBJECT_ID      = 2026-042Q
CENTER_NAME    = EARTH
REF_FRAME      = TEME
TIME_SYSTEM    = UTC
MEAN_ELEMENT_THEORY = SGP/SGP4

EPOCH          = 2026-03-30T23:16:22.149984
MEAN_MOTION    = 15.75373865
ECCENTRICITY   = .00020567
INCLINATION    = 53.1580
RA_OF_ASC_NODE = 88.4984
ARG_OF_PERICENTER = 88.3376
MEAN_ANOMALY   = 271.7880

EPHEMERIS_TYPE = 0
CLASSIFICATION_TYPE = U
NORAD_CAT_ID   = 68083
ELEMENT_SET_NO = 999
REV_AT_EPOCH   = 544
BSTAR          = .20289596E-2
MEAN_MOTION_DOT = .324508E-2
MEAN_MOTION_DDOT = 0

CCSDS_OMM_VERS = 2.0
CREATION_DATE  = 
ORIGINATOR     = 

OBJECT_NAME    = STARLINK-37037
OBJECT_ID      = 2026-042R
CENTER_NAME    = EARTH
REF_FRAME      = TEME
TIME_SYSTEM    = UTC
MEAN_ELEMENT_THEORY = SGP/SGP4

EPOCH          = 2026-03-30T16:44:46.738752
MEAN_MOTION    = 15.75317480
ECCENTRICITY   = .00012682
INCLINATION    = 53.1582
RA_OF_ASC_NODE = 89.6387
ARG_OF_PERICENTER = 78.3310
MEAN_ANOMALY   = 281.7852

EPHEMERIS_TYPE = 0
CLASSIFICATION_TYPE = U
NORAD_CAT_ID   = 68084
ELEMENT_SET_NO = 999
REV_AT_EPOCH   = 540
BSTAR          = .15865389E-2
MEAN_MOTION_DOT = .250762E-2
MEAN_MOTION_DDOT = 0

CCSDS_OMM_VERS = 2.0
CREATION_DATE  = 
ORIGINATOR     = 

OBJECT_NAME    = STARLINK-37068
OBJECT_ID      = 2026-042S
CENTER_NAME    = EARTH
REF_FRAME      = TEME
TIME_SYSTEM    = UTC
MEAN_ELEMENT_THEORY = SGP/SGP4

EPOCH          = 2026-03-30T22:00:00.999936
MEAN_MOTION    = 15.75209297
ECCENTRICITY   = .00011227
INCLINATION    = 53.1583
RA_OF_ASC_NODE = 88.3940
ARG_OF_PERICENTER = 123.2600
MEAN_ANOMALY   = 114.4271

EPHEMERIS_TYPE = 0
CLASSIFICATION_TYPE = U
NORAD_CAT_ID   = 68085
ELEMENT_SET_NO = 999
REV_AT_EPOCH   = 546
BSTAR          = .32872421E-3
MEAN_MOTION_DOT = .49982E-3
MEAN_MOTION_DDOT = 0

CCSDS_OMM_VERS = 2.0
CREATION_DATE  = 
ORIGINATOR     = 

OBJECT_NAME    = STARLINK-37067
OBJECT_ID      = 2026-042T
CENTER_NAME    = EARTH
REF_FRAME      = TEME
TIME_SYSTEM    = UTC
MEAN_ELEMENT_THEORY = SGP/SGP4

EPOCH          = 2026-03-30T14:37:07.687200
MEAN_MOTION    = 15.81076259
ECCENTRICITY   = .00004109
INCLINATION    = 53.1572
RA_OF_ASC_NODE = 89.7863
ARG_OF_PERICENTER = 89.5520
MEAN_ANOMALY   = 270.5550

EPHEMERIS_TYPE = 0
CLASSIFICATION_TYPE = U
NORAD_CAT_ID   = 68086
ELEMENT_SET_NO = 999
REV_AT_EPOCH   = 539
BSTAR          = .24644043E-2
MEAN_MOTION_DOT = .521146E-2
MEAN_MOTION_DDOT = 0

