STARLINK-37026          
1 68075U 26042G   26089.53530459  .00409448  00000+0  25338-2 0  9990
2 68075  53.1564  90.7703 0001386  54.9103 305.2048 15.75366946  5377
STARLINK-37023          
1 68076U 26042H   26089.72046802  .00274608  00000+0  17323-2 0  9999
2 68076  53.1569  89.7894 0003268  83.9508 276.1885 15.75312187  5401
STARLINK-37036          
1 68077U 26042J   26089.97456583  .00525068  00000+0  31911-2 0  9996
2 68077  53.1568  88.5294 0002078 137.6087 222.5094 15.75456354  5445
STARLINK-36973          
1 68078U 26042K   26089.37632797  .00422579  00000+0  26118-2 0  9990
2 68078  53.1583  91.1869 0001393  62.6670 297.4492 15.75358603  5356
STARLINK-37063          
1 68079U 26042L   26089.42546511  .00312421  00000+0  15227-2 0  9998
2 68079  53.1568  90.7785 0001504  44.5106 315.6037 15.80975286  5366
STARLINK-37051          
1 68080U 26042M   26089.88842227  .00341874  00000+0  21322-2 0  9990
2 68080  53.1583  88.6940 0001036  95.9302 264.1837 15.75380425  5435
STARLINK-37066          
1 68081U 26042N   26089.71137644  .00265351  00000+0  16741-2 0  9997
2 68081  53.1594  89.7299 0000891 103.8766 256.2354 15.75338855  5401
STARLINK-37054          
1 68082U 26042P   26089.54890030  .00282351  00000+0  13807-2 0  9993
2 68082  53.1569  90.1239 0000939 130.6273 229.4832 15.80984265  5386
STARLINK-37065          
1 68083U 26042Q   26089.96970081  .00324508  00000+0  20290-2 0  9990
2 68083  53.1580  88.4984 0002056  88.3376 271.7880 15.75373865  5444
STARLINK-37037          
1 68084U 26042R   26089.69776318  .00250762  00000+0  15865-2 0  9990
2 68084  53.1582  89.6387 0001268  78.3310 281.7852 15.75317480  5405
STARLINK-37068          
1 68085U 26042S   26089.91667824  .00049982  00000+0  32872-3 0  9995
2 68085  53.1583  88.3940 0001122 123.2600 114.4271 15.75209297  5468
STARLINK-37067          
1 68086U 26042T   26089.60911675  .00521146  00000+0  24644-2 0  9992
2 68086  53.1572  89.7863 0000410  89.5520 270.5550 15.81076259  5393
